190P/Mueller,e,2.1741,335.5545,50.3531,4.231600,0.1132262,0.52205942,261.7157,08/09.0/2022,2000,g 13.0,4.0
# From MPEC 2022-C56
191P/McNaught,e,8.8410,98.2288,284.0849,3.636654,0.1421186,0.38600691,72.0066,08/09.0/2022,2000,g 13.0,4.0
# From MPC 75724
192P/Shoemaker-Levy,e,24.5810,51.6104,313.0325,6.470712,0.0598792,0.77346503,320.8200,08/09.0/2022,2000,g 15.0,4.0
# From MPEC 2022-K19
193P/LINEAR-NEAT,e,10.6883,335.1734,8.0841,3.576410,0.1457247,0.39377273,50.8314,08/09.0/2022,2000,g 14.0,4.0
# From MPC 98566
194P/LINEAR,e,11.9053,349.6401,128.7316,4.123756,0.1176968,0.56715852,296.1074,08/09.0/2022,2000,g 16.0,4.0
# From MPEC 2021-S45
195P/Hill,e,36.3336,243.1236,249.2409,6.507215,0.0593761,0.31410787,295.7112,08/09.0/2022,2000,g  8.5,4.0
# From MPC 92985
196P/Tichy,e,19.2997,24.1118,12.0652,3.807008,0.1326870,0.42860291,349.2005,08/09.0/2022,2000,g 13.5,4.0
# From MPC 94676
197P/LINEAR,e,25.5277,66.3638,188.7492,2.867995,0.2029254,0.62937203,335.5017,08/09.0/2022,2000,g 16.5,2.0
# From NK 1596
198P/ODAS,e,1.3386,358.2366,69.1844,3.597006,0.1444749,0.44403683,192.6800,08/09.0/2022,2000,g  9.0,4.0
# From MPEC 2022-N37
199P/Shoemaker,e,24.9333,92.3553,191.7528,5.886730,0.0690070,0.50560221,334.9164,08/09.0/2022,2000,g 10.0,4.0
# From MPEC 2022-C56
200P/Larsen,e,12.0980,234.7556,134.2440,4.944812,0.0896354,0.33270030,99.1462,08/09.0/2022,2000,g  9.0,4.0
# From MPC 93588
201P/LONEOS,e,5.7396,19.7453,41.5426,3.354547,0.1604181,0.63722394,70.4659,08/09.0/2022,2000,g 14.0,4.0
# From MPEC 2022-K19
202P/Scotti,e,2.1264,177.3461,275.7514,4.103998,0.1185478,0.25891914,282.8826,08/09.0/2022,2000,g 13.5,4.0
# From MPEC 2021-S45
203P/Korlevic,e,2.9726,290.3103,154.7717,4.669787,0.0976694,0.31551464,86.6609,08/09.0/2022,2000,g 14.5,2.0
# From MPC 98566
204P/LINEAR-NEAT,e,6.5962,108.4999,356.6435,3.581179,0.1454337,0.48777076,345.4777,08/09.0/2022,2000,g 14.0,4.0
# From MPEC 2022-K19
205P/Giacobini,e,15.3062,179.6023,154.1712,3.542393,0.1478288,0.56808919,30.6481,08/09.0/2022,2000,g 13.0,4.0
# From MPC 75725
206P/Barnard-Boattini,e,33.6379,202.3331,189.5148,3.489409,0.1512085,0.55150759,78.9920,08/09.0/2022,2000,g 19.0,4.0
# From MPC 75725
207P/NEAT,e,10.1984,198.1830,273.0568,3.876860,0.1291171,0.75854895,290.1727,08/09.0/2022,2000,g 16.0,4.0
# From MPEC 2022-K19
208P/McMillan,e,4.4123,36.3396,310.5532,4.042927,0.1212440,0.37415314,269.6162,08/09.0/2022,2000,g 12.5,4.0
# From MPC 90771
209P/LINEAR,e,21.2594,62.7700,152.4402,2.959919,0.1935461,0.67315551,223.3562,08/09.0/2022,2000,g 17.0,2.0
# From MPC105242
210P/Christensen,e,10.2698,93.8126,345.8948,3.163300,0.1751836,0.83348919,149.4383,08/09.0/2022,2000,g 13.5,4.0
# From MPEC 2022-ED3
211P/Hill,e,18.9209,117.1319,4.2771,3.546640,0.1475633,0.34371243,351.6486,08/09.0/2022,2000,g 12.5,4.0
# From MPEC 2021-F20
212P/NEAT,e,22.1622,98.1237,14.0595,3.896058,0.1281640,0.58718751,279.8736,08/09.0/2022,2000,g 17.0,2.0
# From MPEC 2022-GA9
213P/Van Ness,e,10.3810,311.2895,5.7247,3.346835,0.1609728,0.40821847,286.0121,08/09.0/2022,2000,g 10.5,4.0
# From MPC 92986
214P/LINEAR,e,15.1834,348.2491,190.1869,3.619984,0.1431015,0.48591666,353.0984,08/09.0/2022,2000,g 13.0,4.0
# From MPEC 2022-F14
215P/NEAT,e,10.5782,56.6828,262.3490,4.330119,0.1093841,0.16642315,108.6776,08/09.0/2022,2000,g 11.0,4.0
# From MPC100284
216P/LINEAR,e,9.0651,359.8127,151.5506,3.861867,0.1298698,0.44837132,293.0351,08/09.0/2022,2000,g 13.0,4.0
# From MPEC 2021-N06
217P/LINEAR,e,12.8626,125.4481,246.9017,3.949180,0.1255867,0.68922278,231.9465,08/09.0/2022,2000,g 12.0,4.0
# From MPEC 2022-K19
218P/LINEAR,e,2.7297,175.9927,59.6211,3.089825,0.1814694,0.62261426,122.3428,08/09.0/2022,2000,g 16.0,4.0
# From MPC100284
219P/LINEAR,e,11.5376,230.9519,107.5399,3.647579,0.1414807,0.35415870,281.6825,08/09.0/2022,2000,g 11.0,4.0
# From MPEC 2021-BE3
220P/McNaught,e,8.1286,150.1026,180.5869,3.117061,0.1790961,0.50154966,108.5988,08/09.0/2022,2000,g 15.0,4.0
# From MPEC 2021-J28
221P/LINEAR,e,11.4300,229.6711,40.1696,3.458640,0.1532308,0.49313671,35.8329,08/09.0/2022,2000,g 14.5,4.0
# From MPC 92277
222P/LINEAR,e,5.0986,6.7761,346.2693,2.898949,0.1996840,0.71480329,231.6507,08/09.0/2022,2000,g 20.0,4.0
# From MPEC 2021-S45
223P/Skiff,e,27.0262,346.7703,37.8363,4.158735,0.1162150,0.41642386,149.7573,08/09.0/2022,2000,g 12.0,4.0
# From MPC 75727
224P/LINEAR-NEAT,e,13.3054,40.0382,16.6644,3.444410,0.1541813,0.40599448,351.9891,08/09.0/2022,2000,g 15.5,4.0
# From MPC 75727
225P/LINEAR,e,21.3667,14.2046,3.9001,3.648525,0.1414256,0.63843162,308.5113,08/09.0/2022,2000,g 18.0,4.0
# From MPC106349
226P/Pigott-LINEAR-Kowalski,e,44.0416,54.0092,341.0584,3.766528,0.1348318,0.52888733,291.8726,08/09.0/2022,2000,g 12.5,4.0
# From MPC102956
227P/Catalina-LINEAR,e,7.4252,37.2029,104.5844,3.463646,0.1528987,0.53067188,272.1884,08/09.0/2022,2000,g 16.5,2.0
# From MPEC 2022-HC2
228P/LINEAR,e,7.9131,30.9859,114.9451,4.167880,0.1158327,0.17623540,102.3367,08/09.0/2022,2000,g 14.1,4.0
# From MPC106349
229P/Gibbs,e,26.0921,157.9094,224.0216,3.927363,0.1266346,0.37776893,241.0351,08/09.0/2022,2000,g 13.0,4.0
# From MPEC 2022-GA9
230P/LINEAR,e,15.4697,106.9840,313.4377,3.451653,0.1536963,0.54548916,21.9254,08/09.0/2022,2000,g 13.0,4.0
# From MPEC 2022-K19
231P/LINEAR-NEAT,e,12.3101,133.0024,44.1321,4.043164,0.1212333,0.24416427,139.3566,08/09.0/2022,2000,g 14.5,2.0
# From MPC112394
232P/Hill,e,14.6407,56.0198,53.2722,4.476318,0.1040693,0.33451491,127.1120,08/09.0/2022,2000,g 11.5,4.0
# From MPEC 2021-N06
233P/La Sagra,e,11.2870,74.9151,26.9804,3.028983,0.1869643,0.41202162,126.4613,08/09.0/2022,2000,g 15.0,4.0
# From MPEC 2022-K19
234P/LINEAR,e,11.5356,179.5725,357.2514,3.797699,0.1331752,0.25601403,252.5934,08/09.0/2022,2000,g 12.0,4.0
# From MPC110497
235P/LINEAR,e,9.2163,202.5302,333.6992,3.926920,0.1266561,0.33620063,201.6561,08/09.0/2022,2000,g 12.0,4.0
# From MPC107688
236P/LINEAR,e,16.3461,245.5832,119.3087,3.728693,0.1368892,0.50935399,235.4982,08/09.0/2022,2000,g 14.0,4.0
# From MPEC 2022-K19
237P/LINEAR,e,14.0151,245.3638,25.2536,3.511835,0.1497625,0.43420566,318.2668,08/09.0/2022,2000,g 14.5,2.0
# From MPEC 2022-P82
238P/Read,e,1.2641,51.6255,324.2156,3.166645,0.1749061,0.25177419,11.2877,08/09.0/2022,2000,g 14.5,4.0
# From MPEC 2021-F20
239P/LINEAR,e,11.3008,255.9215,220.3897,4.468296,0.1043497,0.63018780,136.4735,08/09.0/2022,2000,g 17.5,2.0
# From MPEC 2021-F20
240P/NEAT,e,23.5244,74.9075,351.9439,3.864869,0.1297185,0.44959382,200.5300,08/09.0/2022,2000,g 12.1,4.0
# From MPEC 2022-J42
241P/LINEAR,e,21.1039,305.4809,111.4472,4.920084,0.0903120,0.61025507,34.2380,08/09.0/2022,2000,g 13.5,4.0
# From MPEC 2021-S45
242P/Spahr,e,32.5098,180.3757,245.5611,5.497234,0.0764694,0.27873577,293.2448,08/09.0/2022,2000,g  8.0,4.0
# From MPEC 2022-K19
243P/NEAT,e,7.6409,87.6091,283.6049,3.830123,0.1314876,0.36055978,189.6467,08/09.0/2022,2000,g 12.5,4.0
# From MPEC 2022-ED3
244P/Scotti,e,2.2594,353.9915,93.0852,4.895499,0.0909931,0.19917701,350.8927,08/09.0/2022,2000,g  9.0,4.0
# From MPEC 2022-CN4
245P/WISE,e,21.1928,316.6595,316.8746,4.046649,0.1210767,0.45641763,198.9698,08/09.0/2022,2000,g 14.0,4.0
# From MPEC 2022-P82
246P/NEAT,e,15.9668,78.4702,176.9899,4.032402,0.1217190,0.28924209,64.5084,08/09.0/2022,2000,g 10.5,4.0
# From MPEC 2021-F20
247P/LINEAR,e,13.6574,54.0225,47.4184,3.967884,0.1246998,0.62448807,167.9375,08/09.0/2022,2000,g 16.5,2.0
# From MPC 75730
248P/Gibbs,e,6.3509,207.8045,209.8534,5.990810,0.0672165,0.63891812,283.8321,08/09.0/2022,2000,g 14.0,4.0
# From MPEC 2021-S45
249P/LINEAR,e,8.3882,239.1050,65.7098,2.763459,0.2145480,0.81984451,165.3146,08/09.0/2022,2000,g 15.5,4.0
# From MPC110497
250P/Larson,e,13.1534,73.3915,46.1281,3.767102,0.1348010,0.39916809,223.4506,08/09.0/2022,2000,g 14.5,4.0
# From MPC104795
251P/LINEAR,e,23.3866,219.3519,31.2748,3.512281,0.1497339,0.50458987,277.1576,08/09.0/2022,2000,g 16.5,2.0
# From MPEC 2021-S45
252P/LINEAR,e,10.4116,190.9255,343.3622,3.050366,0.1850018,0.67161869,72.8490,08/09.0/2022,2000,g 17.5,4.0
# From MPEC 2020-FB5
253P/PANSTARRS,e,4.9435,146.8840,230.6805,3.465113,0.1528016,0.41444962,237.1786,08/09.0/2022,2000,g 14.5,4.0
# From MPEC 2022-K19
254P/McNaught,e,32.5697,129.1809,219.6155,4.614648,0.0994251,0.31976085,67.3870,08/09.0/2022,2000,g 11.0,4.0
# From MPEC 2021-UA9
255P/Levy,e,13.4110,275.6652,186.0131,2.942192,0.1952979,0.71152929,354.2784,08/09.0/2022,2000,g 14.1,4.0
# From MPEC 2022-C56
256P/LINEAR,e,27.6190,81.3378,124.2073,4.639312,0.0986333,0.41797949,338.7633,08/09.0/2022,2000,g 14.0,2.0
# From MPEC 2021-Y10
257P/Catalina,e,20.2200,207.7213,117.7315,3.763500,0.1349945,0.43021148,94.1275,08/09.0/2022,2000,g 11.5,4.0
# From MPEC 2021-U31
258P/PANSTARRS,e,6.7464,126.2411,25.8334,4.395355,0.1069580,0.20840688,83.6575,08/09.0/2022,2000,g 13.0,4.0
# From MPC106349
259P/Garradd,e,15.8929,51.4333,257.6270,2.730863,0.2184008,0.33889563,39.6743,08/09.0/2022,2000,g 15.5,4.0
# From MPEC 2022-O01
260P/McNaught,e,15.0583,349.3383,18.4319,3.623184,0.1429119,0.60935054,151.9723,08/09.0/2022,2000,g 13.5,4.0
# From MPEC 2021-J28
261P/Larson,e,6.0728,291.1299,67.2286,3.490448,0.1511410,0.42336012,173.2820,08/09.0/2022,2000,g 14.0,4.0
# From MPC 82322
262P/McNaught-Russell,e,29.2749,217.8666,171.0437,6.872294,0.0547081,0.81619185,193.3640,08/09.0/2022,2000,g 13.5,4.0
# From MPC 89018
263P/Gibbs,e,11.5216,105.5138,35.0251,3.042112,0.1857553,0.59355776,327.5725,08/09.0/2022,2000,g  9.0,4.0
# From MPC114608
264P/Larsen,e,25.2926,220.3043,346.7170,3.886990,0.1286127,0.37591132,141.5873,08/09.0/2022,2000,g 13.0,4.0
# From MPC 79870
265P/LINEAR,e,14.3645,342.9263,33.4683,4.255319,0.1122809,0.64761992,61.2890,08/09.0/2022,2000,g 14.5,4.0
# From MPEC 2021-F20
266P/Christensen,e,3.4270,4.9973,97.6909,3.532090,0.1484761,0.33972390,124.9817,08/09.0/2022,2000,g 14.7,4.0
# From MPC114608
267P/LONEOS,e,6.1423,228.5763,114.2208,3.211050,0.1712906,0.61441296,252.9989,08/09.0/2022,2000,g 19.5,4.0
# From MPC 92277
